STARLINK-37088          
1 68322U 26059B   26106.25002315 -.01908788  00000+0 -19961-1 0  9995
2 68322  53.1602 174.8038 0000877  91.3635 220.2981 15.66886302  5082
STARLINK-36983          
1 68323U 26059C   26106.25002315 -.01885179  00000+0 -24702-1 0  9993
2 68323  53.1593 174.9806 0001463  80.5254 144.4841 15.61191048  5088
STARLINK-37164          
1 68324U 26059D   26106.25002315 -.01913839  00000+0 -21597-1 0  9998
2 68324  53.1595 174.8441 0001139  92.3794 199.5019 15.65015616  5083
STARLINK-36309          
1 68325U 26059E   26106.25002315 -.01908446  00000+0 -18912-1 0  9994
2 68325  53.1596 174.7560 0000896  83.9727 251.2118 15.68193319  5083
STARLINK-37206          
1 68326U 26059F   26106.25002315 -.01910841  00000+0 -19699-1 0  9990
2 68326  53.1597 174.7692 0000912  84.9399 243.6922 15.67238176  5084
STARLINK-37199          
1 68327U 26059G   26106.25002315  .00020125  00000+0  36977-3 0  9995
2 68327  53.1600 175.4416 0000989  58.8836 298.7773 15.49246740  5083
STARLINK-36245          
1 68328U 26059H   26106.25002315 -.01910908  00000+0 -21540-1 0  9994
2 68328  53.1600 174.7994 0000975  85.4698 228.1283 15.65039912  5086
STARLINK-37204          
1 68329U 26059J   26106.25002315 -.01891886  00000+0 -25694-1 0  9992
2 68329  53.1596 174.9591 0001365  96.7248 138.1262 15.60282016  5083
STARLINK-37001          
1 68330U 26059K   26106.25002315  .00017692  00000+0  32543-3 0  9999
2 68330  53.1601 175.5598 0001252  76.9807 221.9564 15.49309923  5082
STARLINK-36932          
1 68331U 26059L   26106.25002315 -.01909614  00000+0 -20079-1 0  9996
2 68331  53.1600 174.7364 0000929  86.9829 257.2448 15.66753099  5088
STARLINK-37205          
1 68332U 26059M   26106.25002315 -.01884945  00000+0 -25698-1 0  9998
2 68332  53.1595 174.9277 0001368  99.3786 150.6533 15.60170369  5083
STARLINK-37180          
1 68333U 26059N   26106.25002315  .00018043  00000+0  33169-3 0  9998
2 68333  53.1600 175.6715 0001187  61.1421 182.5686 15.49312043  5085
STARLINK-37191          
1 68334U 26059P   26106.25002315 -.01885315  00000+0 -25895-1 0  9991
2 68334  53.1600 174.9169 0001279  96.8400 158.2612 15.59979361  5087
STARLINK-37217          
1 68335U 26059Q   26106.25002315 -.01896528  00000+0 -27004-1 0  9994
2 68335  53.1600 174.9425 0001438  95.9227 146.5402 15.59062599  5080
STARLINK-37143          
1 68336U 26059R   26106.25002315 -.01914016  00000+0 -23316-1 0  9990
2 68336  53.1601 174.7952 0001027  81.5813 233.7745 15.63102142  5084
STARLINK-36237          
1 68337U 26059S   26106.25002315 -.01913516  00000+0 -19350-1 0  9998
2 68337  53.1599 174.6614 0000833  81.8902 299.1667 15.67712380  5085
