[{"OBJECT_NAME":"STARLINK-37088","OBJECT_ID":"2026-059B","EPOCH":"2026-04-16T06:00:02.000160","MEAN_MOTION":15.66886302,"ECCENTRICITY":8.772e-5,"INCLINATION":53.1602,"RA_OF_ASC_NODE":174.8038,"ARG_OF_PERICENTER":91.3635,"MEAN_ANOMALY":220.2981,"EPHEMERIS_TYPE":0,"CLASSIFICATION_TYPE":"U","NORAD_CAT_ID":68322,"ELEMENT_SET_NO":999,"REV_AT_EPOCH":508,"BSTAR":-0.019960998,"MEAN_MOTION_DOT":-0.01908788,"MEAN_MOTION_DDOT":0},{"OBJECT_NAME":"STARLINK-36983","OBJECT_ID":"2026-059C","EPOCH":"2026-04-16T06:00:02.000160","MEAN_MOTION":15.61191048,"ECCENTRICITY":0.00014632,"INCLINATION":53.1593,"RA_OF_ASC_NODE":174.9806,"ARG_OF_PERICENTER":80.5254,"MEAN_ANOMALY":144.4841,"EPHEMERIS_TYPE":0,"CLASSIFICATION_TYPE":"U","NORAD_CAT_ID":68323,"ELEMENT_SET_NO":999,"REV_AT_EPOCH":508,"BSTAR":-0.024702325,"MEAN_MOTION_DOT":-0.01885179,"MEAN_MOTION_DDOT":0},{"OBJECT_NAME":"STARLINK-37164","OBJECT_ID":"2026-059D","EPOCH":"2026-04-16T06:00:02.000160","MEAN_MOTION":15.65015616,"ECCENTRICITY":0.00011396,"INCLINATION":53.1595,"RA_OF_ASC_NODE":174.8441,"ARG_OF_PERICENTER":92.3794,"MEAN_ANOMALY":199.5019,"EPHEMERIS_TYPE":0,"CLASSIFICATION_TYPE":"U","NORAD_CAT_ID":68324,"ELEMENT_SET_NO":999,"REV_AT_EPOCH":508,"BSTAR":-0.021597359,"MEAN_MOTION_DOT":-0.01913839,"MEAN_MOTION_DDOT":0},{"OBJECT_NAME":"STARLINK-36309","OBJECT_ID":"2026-059E","EPOCH":"2026-04-16T06:00:02.000160","MEAN_MOTION":15.68193319,"ECCENTRICITY":8.965e-5,"INCLINATION":53.1596,"RA_OF_ASC_NODE":174.756,"ARG_OF_PERICENTER":83.9727,"MEAN_ANOMALY":251.2118,"EPHEMERIS_TYPE":0,"CLASSIFICATION_TYPE":"U","NORAD_CAT_ID":68325,"ELEMENT_SET_NO":999,"REV_AT_EPOCH":508,"BSTAR":-0.018912116,"MEAN_MOTION_DOT":-0.01908446,"MEAN_MOTION_DDOT":0},{"OBJECT_NAME":"STARLINK-37206","OBJECT_ID":"2026-059F","EPOCH":"2026-04-16T06:00:02.000160","MEAN_MOTION":15.67238176,"ECCENTRICITY":9.121e-5,"INCLINATION":53.1597,"RA_OF_ASC_NODE":174.7692,"ARG_OF_PERICENTER":84.9399,"MEAN_ANOMALY":243.6922,"EPHEMERIS_TYPE":0,"CLASSIFICATION_TYPE":"U","NORAD_CAT_ID":68326,"ELEMENT_SET_NO":999,"REV_AT_EPOCH":508,"BSTAR":-0.019698946,"MEAN_MOTION_DOT":-0.01910841,"MEAN_MOTION_DDOT":0},{"OBJECT_NAME":"STARLINK-37199","OBJECT_ID":"2026-059G","EPOCH":"2026-04-16T06:00:02.000160","MEAN_MOTION":15.4924674,"ECCENTRICITY":9.891e-5,"INCLINATION":53.16,"RA_OF_ASC_NODE":175.4416,"ARG_OF_PERICENTER":58.8836,"MEAN_ANOMALY":298.7773,"EPHEMERIS_TYPE":0,"CLASSIFICATION_TYPE":"U","NORAD_CAT_ID":68327,"ELEMENT_SET_NO":999,"REV_AT_EPOCH":508,"BSTAR":0.00036976776,"MEAN_MOTION_DOT":0.00020125,"MEAN_MOTION_DDOT":0},{"OBJECT_NAME":"STARLINK-36245","OBJECT_ID":"2026-059H","EPOCH":"2026-04-16T06:00:02.000160","MEAN_MOTION":15.65039912,"ECCENTRICITY":9.754e-5,"INCLINATION":53.16,"RA_OF_ASC_NODE":174.7994,"ARG_OF_PERICENTER":85.4698,"MEAN_ANOMALY":228.1283,"EPHEMERIS_TYPE":0,"CLASSIFICATION_TYPE":"U","NORAD_CAT_ID":68328,"ELEMENT_SET_NO":999,"REV_AT_EPOCH":508,"BSTAR":-0.02154031,"MEAN_MOTION_DOT":-0.01910908,"MEAN_MOTION_DDOT":0},{"OBJECT_NAME":"STARLINK-37204","OBJECT_ID":"2026-059J","EPOCH":"2026-04-16T06:00:02.000160","MEAN_MOTION":15.60282016,"ECCENTRICITY":0.00013658,"INCLINATION":53.1596,"RA_OF_ASC_NODE":174.9591,"ARG_OF_PERICENTER":96.7248,"MEAN_ANOMALY":138.1262,"EPHEMERIS_TYPE":0,"CLASSIFICATION_TYPE":"U","NORAD_CAT_ID":68329,"ELEMENT_SET_NO":999,"REV_AT_EPOCH":508,"BSTAR":-0.025694198,"MEAN_MOTION_DOT":-0.01891886,"MEAN_MOTION_DDOT":0},{"OBJECT_NAME":"STARLINK-37001","OBJECT_ID":"2026-059K","EPOCH":"2026-04-16T06:00:02.000160","MEAN_MOTION":15.49309923,"ECCENTRICITY":0.00012528,"INCLINATION":53.1601,"RA_OF_ASC_NODE":175.5598,"ARG_OF_PERICENTER":76.9807,"MEAN_ANOMALY":221.9564,"EPHEMERIS_TYPE":0,"CLASSIFICATION_TYPE":"U","NORAD_CAT_ID":68330,"ELEMENT_SET_NO":999,"REV_AT_EPOCH":508,"BSTAR":0.00032542956,"MEAN_MOTION_DOT":0.00017692,"MEAN_MOTION_DDOT":0},{"OBJECT_NAME":"STARLINK-36932","OBJECT_ID":"2026-059L","EPOCH":"2026-04-16T06:00:02.000160","MEAN_MOTION":15.66753099,"ECCENTRICITY":9.297e-5,"INCLINATION":53.16,"RA_OF_ASC_NODE":174.7364,"ARG_OF_PERICENTER":86.9829,"MEAN_ANOMALY":257.2448,"EPHEMERIS_TYPE":0,"CLASSIFICATION_TYPE":"U","NORAD_CAT_ID":68331,"ELEMENT_SET_NO":999,"REV_AT_EPOCH":508,"BSTAR":-0.02007938,"MEAN_MOTION_DOT":-0.01909614,"MEAN_MOTION_DDOT":0},{"OBJECT_NAME":"STARLINK-37205","OBJECT_ID":"2026-059M","EPOCH":"2026-04-16T06:00:02.000160","MEAN_MOTION":15.60170369,"ECCENTRICITY":0.00013682,"INCLINATION":53.1595,"RA_OF_ASC_NODE":174.9277,"ARG_OF_PERICENTER":99.3786,"MEAN_ANOMALY":150.6533,"EPHEMERIS_TYPE":0,"CLASSIFICATION_TYPE":"U","NORAD_CAT_ID":68332,"ELEMENT_SET_NO":999,"REV_AT_EPOCH":508,"BSTAR":-0.025698349,"MEAN_MOTION_DOT":-0.01884945,"MEAN_MOTION_DDOT":0},{"OBJECT_NAME":"STARLINK-37180","OBJECT_ID":"2026-059N","EPOCH":"2026-04-16T06:00:02.000160","MEAN_MOTION":15.49312043,"ECCENTRICITY":0.00011871,"INCLINATION":53.16,"RA_OF_ASC_NODE":175.6715,"ARG_OF_PERICENTER":61.1421,"MEAN_ANOMALY":182.5686,"EPHEMERIS_TYPE":0,"CLASSIFICATION_TYPE":"U","NORAD_CAT_ID":68333,"ELEMENT_SET_NO":999,"REV_AT_EPOCH":508,"BSTAR":0.00033168683,"MEAN_MOTION_DOT":0.00018043,"MEAN_MOTION_DDOT":0},{"OBJECT_NAME":"STARLINK-37191","OBJECT_ID":"2026-059P","EPOCH":"2026-04-16T06:00:02.000160","MEAN_MOTION":15.59979361,"ECCENTRICITY":0.00012797,"INCLINATION":53.16,"RA_OF_ASC_NODE":174.9169,"ARG_OF_PERICENTER":96.84,"MEAN_ANOMALY":158.2612,"EPHEMERIS_TYPE":0,"CLASSIFICATION_TYPE":"U","NORAD_CAT_ID":68334,"ELEMENT_SET_NO":999,"REV_AT_EPOCH":508,"BSTAR":-0.025895352,"MEAN_MOTION_DOT":-0.01885315,"MEAN_MOTION_DDOT":0},{"OBJECT_NAME":"STARLINK-37217","OBJECT_ID":"2026-059Q","EPOCH":"2026-04-16T06:00:02.000160","MEAN_MOTION":15.59062599,"ECCENTRICITY":0.00014383,"INCLINATION":53.16,"RA_OF_ASC_NODE":174.9425,"ARG_OF_PERICENTER":95.9227,"MEAN_ANOMALY":146.5402,"EPHEMERIS_TYPE":0,"CLASSIFICATION_TYPE":"U","NORAD_CAT_ID":68335,"ELEMENT_SET_NO":999,"REV_AT_EPOCH":508,"BSTAR":-0.027003769,"MEAN_MOTION_DOT":-0.01896528,"MEAN_MOTION_DDOT":0},{"OBJECT_NAME":"STARLINK-37143","OBJECT_ID":"2026-059R","EPOCH":"2026-04-16T06:00:02.000160","MEAN_MOTION":15.63102142,"ECCENTRICITY":0.00010273,"INCLINATION":53.1601,"RA_OF_ASC_NODE":174.7952,"ARG_OF_PERICENTER":81.5813,"MEAN_ANOMALY":233.7745,"EPHEMERIS_TYPE":0,"CLASSIFICATION_TYPE":"U","NORAD_CAT_ID":68336,"ELEMENT_SET_NO":999,"REV_AT_EPOCH":508,"BSTAR":-0.023315849,"MEAN_MOTION_DOT":-0.01914016,"MEAN_MOTION_DDOT":0},{"OBJECT_NAME":"STARLINK-36237","OBJECT_ID":"2026-059S","EPOCH":"2026-04-16T06:00:02.000160","MEAN_MOTION":15.6771238,"ECCENTRICITY":8.333e-5,"INCLINATION":53.1599,"RA_OF_ASC_NODE":174.6614,"ARG_OF_PERICENTER":81.8902,"MEAN_ANOMALY":299.1667,"EPHEMERIS_TYPE":0,"CLASSIFICATION_TYPE":"U","NORAD_CAT_ID":68337,"ELEMENT_SET_NO":999,"REV_AT_EPOCH":508,"BSTAR":-0.019349751,"MEAN_MOTION_DOT":-0.01913516,"MEAN_MOTION_DDOT":0}]
